[
    {
        "OBJECT_NAME": "CHINASAT 32 (BEIDOU-1 G1)",
        "OBJECT_ID": "2000-069A",
        "EPOCH": "2025-03-02T14:48:04.125888",
        "MEAN_MOTION": 0.98908918,
        "ECCENTRICITY": 0.0014631,
        "INCLINATION": 11.5702,
        "RA_OF_ASC_NODE": 35.8252,
        "ARG_OF_PERICENTER": 323.3222,
        "MEAN_ANOMALY": 36.6909,
        "EPHEMERIS_TYPE": 0,
        "CLASSIFICATION_TYPE": "U",
        "NORAD_CAT_ID": 26599,
        "ELEMENT_SET_NO": 999,
        "REV_AT_EPOCH": 8851,
        "BSTAR": 0,
        "MEAN_MOTION_DOT": -1.27e-06,
        "MEAN_MOTION_DDOT": 0
    },
    {
        "OBJECT_NAME": "CHINASAT 31 (BEIDOU-1 G2)",
        "OBJECT_ID": "2000-082A",
        "EPOCH": "2025-03-03T09:12:08.322624",
        "MEAN_MOTION": 0.99249534,
        "ECCENTRICITY": 0.007839,
        "INCLINATION": 11.9111,
        "RA_OF_ASC_NODE": 30.7177,
        "ARG_OF_PERICENTER": 75.718,
        "MEAN_ANOMALY": 109.8991,
        "EPHEMERIS_TYPE": 0,
        "CLASSIFICATION_TYPE": "U",
        "NORAD_CAT_ID": 26643,
        "ELEMENT_SET_NO": 999,
        "REV_AT_EPOCH": 4740,
        "BSTAR": 0,
        "MEAN_MOTION_DOT": -9.9e-07,
        "MEAN_MOTION_DDOT": 0
    },
    {
        "OBJECT_NAME": "BEIDOU-1 G3",
        "OBJECT_ID": "2003-021A",
        "EPOCH": "2025-03-03T02:51:38.847168",
        "MEAN_MOTION": 0.99776012,
        "ECCENTRICITY": 0.0017127,
        "INCLINATION": 10.4621,
        "RA_OF_ASC_NODE": 45.1563,
        "ARG_OF_PERICENTER": 289.7736,
        "MEAN_ANOMALY": 251.2612,
        "EPHEMERIS_TYPE": 0,
        "CLASSIFICATION_TYPE": "U",
        "NORAD_CAT_ID": 27813,
        "ELEMENT_SET_NO": 999,
        "REV_AT_EPOCH": 7956,
        "BSTAR": 0,
        "MEAN_MOTION_DOT": 4.8e-07,
        "MEAN_MOTION_DDOT": 0
    },
    {
        "OBJECT_NAME": "BEIDOU-2 M1",
        "OBJECT_ID": "2007-011A",
        "EPOCH": "2025-02-28T18:11:37.031136",
        "MEAN_MOTION": 1.77349135,
        "ECCENTRICITY": 0.0002467,
        "INCLINATION": 51.1199,
        "RA_OF_ASC_NODE": 235.0106,
        "ARG_OF_PERICENTER": 34.3534,
        "MEAN_ANOMALY": 325.6285,
        "EPHEMERIS_TYPE": 0,
        "CLASSIFICATION_TYPE": "U",
        "NORAD_CAT_ID": 31115,
        "ELEMENT_SET_NO": 999,
        "REV_AT_EPOCH": 11799,
        "BSTAR": 0,
        "MEAN_MOTION_DOT": 4e-07,
        "MEAN_MOTION_DDOT": 0
    },
    {
        "OBJECT_NAME": "BEIDOU-2 G2",
        "OBJECT_ID": "2009-018A",
        "EPOCH": "2025-03-03T07:40:26.087232",
        "MEAN_MOTION": 0.94516766,
        "ECCENTRICITY": 0.0308539,
        "INCLINATION": 10.4661,
        "RA_OF_ASC_NODE": 45.3362,
        "ARG_OF_PERICENTER": 273.3081,
        "MEAN_ANOMALY": 278.2542,
        "EPHEMERIS_TYPE": 0,
        "CLASSIFICATION_TYPE": "U",
        "NORAD_CAT_ID": 34779,
        "ELEMENT_SET_NO": 999,
        "REV_AT_EPOCH": 5770,
        "BSTAR": 0,
        "MEAN_MOTION_DOT": -1.81e-06,
        "MEAN_MOTION_DDOT": 0
    },
    {
        "OBJECT_NAME": "BEIDOU-2 G1",
        "OBJECT_ID": "2010-001A",
        "EPOCH": "2025-03-03T12:45:41.262912",
        "MEAN_MOTION": 1.00269534,
        "ECCENTRICITY": 0.0005149,
        "INCLINATION": 3.1965,
        "RA_OF_ASC_NODE": 60.3589,
        "ARG_OF_PERICENTER": 286.8331,
        "MEAN_ANOMALY": 146.2029,
        "EPHEMERIS_TYPE": 0,
        "CLASSIFICATION_TYPE": "U",
        "NORAD_CAT_ID": 36287,
        "ELEMENT_SET_NO": 999,
        "REV_AT_EPOCH": 5545,
        "BSTAR": 0,
        "MEAN_MOTION_DOT": -2.83e-06,
        "MEAN_MOTION_DDOT": 0
    },
    {
        "OBJECT_NAME": "BEIDOU-2 G3",
        "OBJECT_ID": "2010-024A",
        "EPOCH": "2025-03-03T13:24:11.096928",
        "MEAN_MOTION": 1.00272494,
        "ECCENTRICITY": 0.0008133,
        "INCLINATION": 3.4033,
        "RA_OF_ASC_NODE": 62.3218,
        "ARG_OF_PERICENTER": 320.5291,
        "MEAN_ANOMALY": 59.3414,
        "EPHEMERIS_TYPE": 0,
        "CLASSIFICATION_TYPE": "U",
        "NORAD_CAT_ID": 36590,
        "ELEMENT_SET_NO": 999,
        "REV_AT_EPOCH": 5405,
        "BSTAR": 0,
        "MEAN_MOTION_DOT": -1.38e-06,
        "MEAN_MOTION_DDOT": 0
    },
    {
        "OBJECT_NAME": "BEIDOU-2 IGSO-1",
        "OBJECT_ID": "2010-036A",
        "EPOCH": "2025-03-02T23:25:03.026208",
        "MEAN_MOTION": 1.00255321,
        "ECCENTRICITY": 0.0045394,
        "INCLINATION": 54.2684,
        "RA_OF_ASC_NODE": 167.2244,
        "ARG_OF_PERICENTER": 209.8781,
        "MEAN_ANOMALY": 240.6461,
        "EPHEMERIS_TYPE": 0,
        "CLASSIFICATION_TYPE": "U",
        "NORAD_CAT_ID": 36828,
        "ELEMENT_SET_NO": 999,
        "REV_AT_EPOCH": 5350,
        "BSTAR": 0,
        "MEAN_MOTION_DOT": -1.25e-06,
        "MEAN_MOTION_DDOT": 0
    },
    {
        "OBJECT_NAME": "BEIDOU-2 G4",
        "OBJECT_ID": "2010-057A",
        "EPOCH": "2025-03-03T14:49:35.925888",
        "MEAN_MOTION": 1.00271436,
        "ECCENTRICITY": 0.0007756,
        "INCLINATION": 2.4781,
        "RA_OF_ASC_NODE": 70.4402,
        "ARG_OF_PERICENTER": 204.7529,
        "MEAN_ANOMALY": 268.8362,
        "EPHEMERIS_TYPE": 0,
        "CLASSIFICATION_TYPE": "U",
        "NORAD_CAT_ID": 37210,
        "ELEMENT_SET_NO": 999,
        "REV_AT_EPOCH": 5257,
        "BSTAR": 0,
        "MEAN_MOTION_DOT": -1.15e-06,
        "MEAN_MOTION_DDOT": 0
    },
    {
        "OBJECT_NAME": "BEIDOU-2 IGSO-2",
        "OBJECT_ID": "2010-068A",
        "EPOCH": "2025-03-03T07:04:07.163904",
        "MEAN_MOTION": 1.00269015,
        "ECCENTRICITY": 0.0038958,
        "INCLINATION": 48.3992,
        "RA_OF_ASC_NODE": 277.6444,
        "ARG_OF_PERICENTER": 211.7588,
        "MEAN_ANOMALY": 246.1598,
        "EPHEMERIS_TYPE": 0,
        "CLASSIFICATION_TYPE": "U",
        "NORAD_CAT_ID": 37256,
        "ELEMENT_SET_NO": 999,
        "REV_AT_EPOCH": 5206,
        "BSTAR": 0,
        "MEAN_MOTION_DOT": -1.79e-06,
        "MEAN_MOTION_DDOT": 0
    },
    {
        "OBJECT_NAME": "BEIDOU-2 IGSO-3",
        "OBJECT_ID": "2011-013A",
        "EPOCH": "2025-03-03T17:02:34.431072",
        "MEAN_MOTION": 1.00292098,
        "ECCENTRICITY": 0.0030724,
        "INCLINATION": 61.7421,
        "RA_OF_ASC_NODE": 44.6115,
        "ARG_OF_PERICENTER": 184.1997,
        "MEAN_ANOMALY": 295.2217,
        "EPHEMERIS_TYPE": 0,
        "CLASSIFICATION_TYPE": "U",
        "NORAD_CAT_ID": 37384,
        "ELEMENT_SET_NO": 999,
        "REV_AT_EPOCH": 5094,
        "BSTAR": 0,
        "MEAN_MOTION_DOT": -1.68e-06,
        "MEAN_MOTION_DDOT": 0
    },
    {
        "OBJECT_NAME": "BEIDOU-2 IGSO-4",
        "OBJECT_ID": "2011-038A",
        "EPOCH": "2025-03-02T18:36:23.423040",
        "MEAN_MOTION": 1.00253605,
        "ECCENTRICITY": 0.0135692,
        "INCLINATION": 54.5729,
        "RA_OF_ASC_NODE": 169.8883,
        "ARG_OF_PERICENTER": 229.2896,
        "MEAN_ANOMALY": 133.5926,
        "EPHEMERIS_TYPE": 0,
        "CLASSIFICATION_TYPE": "U",
        "NORAD_CAT_ID": 37763,
        "ELEMENT_SET_NO": 999,
        "REV_AT_EPOCH": 4992,
        "BSTAR": 0,
        "MEAN_MOTION_DOT": -6.3e-07,
        "MEAN_MOTION_DDOT": 0
    }
]