34779,BEIDOU-2 G2,2009,1523.54,-1.0,-,10.47,Inactive,0,HEO,PRC,China,Unknown,Unknown,Unknown,1 34779U 09018A   25062.31974638 -.00000181  00000+0  00000+0 0  9993,2 34779  10.4661  45.3362 0308539 273.3081 278.2542  0.94516766 57708,0.94516766,0.0308539,HEO
26599,CHINASAT 32 (BEIDOU-1 G1),2000,1455.88,-1.0,UNK,11.57,Inactive,0,GSO,PRC,China,Unknown,Unknown,Unknown,1 26599U 00069A   25061.61671442 -.00000127  00000+0  00000+0 0  9990,2 26599  11.5702  35.8252 0014631 323.3222  36.6909  0.98908918 88513,0.98908918,0.0014631,GSO
26643,CHINASAT 31 (BEIDOU-1 G2),2000,1450.89,-1.0,-,11.91,Inactive,0,GSO,PRC,China,Unknown,Unknown,Unknown,1 26643U 00082A   25062.38342966 -.00000099  00000+0  00000+0 0  9994,2 26643  11.9111  30.7177 0078390  75.7180 109.8991  0.99249534 47404,0.99249534,0.007839,GSO
27813,BEIDOU-1 G3,2003,1443.23,-1.0,-,10.46,Inactive,0,GSO,PRC,China,Unknown,Unknown,Unknown,1 27813U 03021A   25062.11919962  .00000048  00000+0  00000+0 0  9990,2 27813  10.4621  45.1563 0017127 289.7736 251.2612  0.99776012 79568,0.99776012,0.0017127,GSO
31115,BEIDOU-2 M1,2007,811.96,-1.0,-,51.12,Inactive,0,MEO,PRC,China,Unknown,Unknown,Unknown,1 31115U 07011A   25059.75806749  .00000040  00000+0  00000+0 0  9999,2 31115  51.1199 235.0106 0002467  34.3534 325.6285  1.77349135117995,1.77349135,0.0002467,MEO
36287,BEIDOU-2 G1,2010,1436.13,-1.0,P,3.2,Active,0,GSO,PRC,China,Unknown,Unknown,Unknown,1 36287U 10001A   25062.53172758 -.00000283  00000+0  00000+0 0  9993,2 36287   3.1965  60.3589 0005149 286.8331 146.2029  1.00269534 55456,1.00269534,0.0005149,GSO
36590,BEIDOU-2 G3,2010,1436.09,-1.0,P,3.4,Active,0,GSO,PRC,China,Unknown,Unknown,Unknown,1 36590U 10024A   25062.55846177 -.00000138  00000+0  00000+0 0  9999,2 36590   3.4033  62.3218 0008133 320.5291  59.3414  1.00272494 54056,1.00272494,0.0008133,GSO
36828,BEIDOU-2 IGSO-1,2010,1436.33,4200.0,+,54.27,Active,1,GSO,PRC,China,Government/Military,Navigation (Global or Regional Positioning),Long March,1 36828U 10036A   25061.97572947 -.00000125  00000+0  00000+0 0  9998,2 36828  54.2684 167.2244 0045394 209.8781 240.6461  1.00255321 53509,1.00255321,0.0045394,GSO
37210,BEIDOU-2 G4,2010,1436.1,6000.0,+,2.48,Active,1,GSO,PRC,China,Government/Military,Navigation (Global or Regional Positioning),Long March,1 37210U 10057A   25062.61777692 -.00000115  00000+0  00000+0 0  9992,2 37210   2.4781  70.4402 0007756 204.7529 268.8362  1.00271436 52576,1.00271436,0.0007756,GSO
37256,BEIDOU-2 IGSO-2,2010,1436.14,4200.0,+,48.4,Active,1,GSO,PRC,China,Government/Military,Navigation (Global or Regional Positioning),Long March,1 37256U 10068A   25062.29452736 -.00000179  00000+0  00000+0 0  9997,2 37256  48.3992 277.6444 0038958 211.7588 246.1598  1.00269015 52061,1.00269015,0.0038958,GSO
37384,BEIDOU-2 IGSO-3,2011,1435.8,4200.0,+,61.74,Active,1,GSO,PRC,China,Government/Military,Navigation (Global or Regional Positioning),Long March,1 37384U 11013A   25062.71012073 -.00000168  00000+0  00000+0 0  9991,2 37384  61.7421  44.6115 0030724 184.1997 295.2217  1.00292098 50941,1.00292098,0.0030724,GSO
37763,BEIDOU-2 IGSO-4,2011,1436.36,4200.0,+,54.57,Active,1,GSO,PRC,China,Government/Military,Navigation (Global or Regional Positioning),Long March,1 37763U 11038A   25061.77527110 -.00000063  00000+0  00000+0 0  9991,2 37763  54.5729 169.8883 0135692 229.2896 133.5926  1.00253605 49922,1.00253605,0.0135692,GSO
